start=new Date('2023-01-04T00:00:00.000Z').valueOf();
sats=[{"RA_OF_ASC_NODE":"105.5346","EPOCH":"2023-01-03T18:17:32.754624","REF_FRAME":"TEME","ELEMENT_SET_NO":"999","LAUNCH_DATE":"2022-09-19","CLASSIFICATION_TYPE":"U","TLE_LINE2":"2 53846  53.2188 105.5346 0001252  87.2233 272.8902 15.08845008 17179","PERIOD":"95.437","APOAPSIS":"540.596","OBJECT_NAME":"STARLINK-4746","MEAN_MOTION_DOT":"0.00000935","EPHEMERIS_TYPE":"0","ECCENTRICITY":"0.00012520","COUNTRY_CODE":"US","FILE":"3730911","CENTER_NAME":"EARTH","MEAN_MOTION_DDOT":"0.0000000000000","ARG_OF_PERICENTER":"87.2233","RCS_SIZE":"LARGE","NORAD_CAT_ID":"53846","SITE":"AFETR","SEMIMAJOR_AXIS":"6917.865","TIME_SYSTEM":"UTC","TLE_LINE1":"1 53846U 22114AE  23003.76218466  .00000935  00000-0  76819-4 0  9996","BSTAR":"0.00007681900000","MEAN_ELEMENT_THEORY":"SGP4","INCLINATION":"53.2188","DECAY_DATE":null,"OBJECT_ID":"2022-114AE","OBJECT_TYPE":"PAYLOAD","MEAN_MOTION":"15.08845008","REV_AT_EPOCH":"1717","GP_ID":"222089636","PERIAPSIS":"538.864","MEAN_ANOMALY":"272.8902"},{"NORAD_CAT_ID":"53847","SITE":"AFETR","SEMIMAJOR_AXIS":"6917.910","TIME_SYSTEM":"UTC","TLE_LINE1":"1 53847U 22114AF  23003.70699337  .00001080  00000-0  85955-4 0  9994","MEAN_ELEMENT_THEORY":"SGP4","BSTAR":"0.00008595500000","DECAY_DATE":null,"INCLINATION":"53.2176","OBJECT_TYPE":"PAYLOAD","OBJECT_ID":"2022-114AF","GP_ID":"222089672","REV_AT_EPOCH":"1716","PERIAPSIS":"538.669","MEAN_MOTION":"15.08830383","MEAN_ANOMALY":"295.5028","RA_OF_ASC_NODE":"105.8981","EPOCH":"2023-01-03T16:58:04.227168","REF_FRAME":"TEME","ELEMENT_SET_NO":"999","CLASSIFICATION_TYPE":"U","LAUNCH_DATE":"2022-09-19","PERIOD":"95.438","TLE_LINE2":"2 53847  53.2176 105.8981 0001598  64.6129 295.5028 15.08830383 17161","OBJECT_NAME":"STARLINK-4777","MEAN_MOTION_DOT":"0.00001080","EPHEMERIS_TYPE":"0","APOAPSIS":"540.880","COUNTRY_CODE":"US","ECCENTRICITY":"0.00015980","ARG_OF_PERICENTER":"64.6129","MEAN_MOTION_DDOT":"0.0000000000000","FILE":"3730915","CENTER_NAME":"EARTH","RCS_SIZE":"LARGE"},{"PERIOD":"95.438","TLE_LINE2":"2 53848  53.2177 106.3801 0001461  57.1275 302.9857 15.08831540 17684","CLASSIFICATION_TYPE":"U","LAUNCH_DATE":"2022-09-19","REF_FRAME":"TEME","ELEMENT_SET_NO":"999","EPOCH":"2023-01-03T13:20:45.785472","RA_OF_ASC_NODE":"106.3801","RCS_SIZE":"LARGE","MEAN_MOTION_DDOT":"0.0000000000000","ARG_OF_PERICENTER":"57.1275","FILE":"3730926","CENTER_NAME":"EARTH","COUNTRY_CODE":"US","ECCENTRICITY":"0.00014610","OBJECT_NAME":"STARLINK-4780","EPHEMERIS_TYPE":"0","MEAN_MOTION_DOT":"0.00000605","APOAPSIS":"540.782","MEAN_ELEMENT_THEORY":"SGP4","BSTAR":"0.00005611100000","TIME_SYSTEM":"UTC","TLE_LINE1":"1 53848U 22114AG  23003.55608548  .00000605  00000-0  56111-4 0  9996","SEMIMAJOR_AXIS":"6917.906","NORAD_CAT_ID":"53848","SITE":"AFETR","MEAN_ANOMALY":"302.9857","GP_ID":"222115872","PERIAPSIS":"538.761","REV_AT_EPOCH":"1768","MEAN_MOTION":"15.08831540","OBJECT_TYPE":"PAYLOAD","OBJECT_ID":"2022-114AG","DECAY_DATE":null,"INCLINATION":"53.2177"},{"MEAN_MOTION":"15.08828197","GP_ID":"222089759","PERIAPSIS":"538.625","REV_AT_EPOCH":"1716","MEAN_ANOMALY":"304.2504","INCLINATION":"53.2178","DECAY_DATE":null,"OBJECT_ID":"2022-114AH","OBJECT_TYPE":"PAYLOAD","TLE_LINE1":"1 53849U 22114AH  23003.69961849  .00002936  00000-0  20255-3 0  9996","TIME_SYSTEM":"UTC","BSTAR":"0.00020255000000","MEAN_ELEMENT_THEORY":"SGP4","SITE":"AFETR","NORAD_CAT_ID":"53849","SEMIMAJOR_AXIS":"6917.916","CENTER_NAME":"EARTH","FILE":"3730912","MEAN_MOTION_DDOT":"0.0000000000000","ARG_OF_PERICENTER":"55.8646","RCS_SIZE":"LARGE","APOAPSIS":"540.937","EPHEMERIS_TYPE":"0","MEAN_MOTION_DOT":"0.00002936","OBJECT_NAME":"STARLINK-4770","ECCENTRICITY":"0.00016710","COUNTRY_CODE":"US","LAUNCH_DATE":"2022-09-19","CLASSIFICATION_TYPE":"U","TLE_LINE2":"2 53849  53.2178 105.8496 0001671  55.8646 304.2504 15.08828197 17161","PERIOD":"95.438","RA_OF_ASC_NODE":"105.8496","EPOCH":"2023-01-03T16:47:27.037536","ELEMENT_SET_NO":"999","REF_FRAME":"TEME"},{"EPOCH":"2023-01-03T13:04:50.725056","RA_OF_ASC_NODE":"106.3126","REF_FRAME":"TEME","ELEMENT_SET_NO":"999","LAUNCH_DATE":"2022-09-19","CLASSIFICATION_TYPE":"U","TLE_LINE2":"2 53850  53.2204 106.3126 0001487  69.7855 290.3297 15.08825617 17685","PERIOD":"95.438","APOAPSIS":"540.818","OBJECT_NAME":"STARLINK-4767","EPHEMERIS_TYPE":"0","MEAN_MOTION_DOT":"0.00001110","ECCENTRICITY":"0.00014870","COUNTRY_CODE":"US","CENTER_NAME":"EARTH","FILE":"3730926","MEAN_MOTION_DDOT":"0.0000000000000","ARG_OF_PERICENTER":"69.7855","RCS_SIZE":"LARGE","NORAD_CAT_ID":"53850","SITE":"AFETR","SEMIMAJOR_AXIS":"6917.924","TIME_SYSTEM":"UTC","TLE_LINE1":"1 53850U 22114AJ  23003.54503154  .00001110  00000-0  87863-4 0  9995","BSTAR":"0.00008786300000","MEAN_ELEMENT_THEORY":"SGP4","INCLINATION":"53.2204","DECAY_DATE":null,"OBJECT_ID":"2022-114AJ","OBJECT_TYPE":"PAYLOAD","MEAN_MOTION":"15.08825617","GP_ID":"222114949","REV_AT_EPOCH":"1768","PERIAPSIS":"538.761","MEAN_ANOMALY":"290.3297"},{"RCS_SIZE":"LARGE","ARG_OF_PERICENTER":"48.8528","MEAN_MOTION_DDOT":"0.0000000000000","CENTER_NAME":"EARTH","FILE":"3730912","COUNTRY_CODE":"US","ECCENTRICITY":"0.00014340","OBJECT_NAME":"STARLINK-4755","MEAN_MOTION_DOT":"0.00000894","EPHEMERIS_TYPE":"0","APOAPSIS":"540.791","PERIOD":"95.439","TLE_LINE2":"2 53851  53.2190 105.5095 0001434  48.8528 311.2587 15.08822350 17173","CLASSIFICATION_TYPE":"U","LAUNCH_DATE":"2022-09-19","REF_FRAME":"TEME","ELEMENT_SET_NO":"999","EPOCH":"2023-01-03T18:12:13.862592","RA_OF_ASC_NODE":"105.5095","MEAN_ANOMALY":"311.2587","PERIAPSIS":"538.807","GP_ID":"222089645","REV_AT_EPOCH":"1717","MEAN_MOTION":"15.08822350","OBJECT_TYPE":"PAYLOAD","OBJECT_ID":"2022-114AK","DECAY_DATE":null,"INCLINATION":"53.2190","MEAN_ELEMENT_THEORY":"SGP4","BSTAR":"0.00007426900000","TIME_SYSTEM":"UTC","TLE_LINE1":"1 53851U 22114AK  23003.75849378  .00000894  00000-0  74269-4 0  9994","SEMIMAJOR_AXIS":"6917.934","NORAD_CAT_ID":"53851","SITE":"AFETR"},{"FILE":"3730926","CENTER_NAME":"EARTH","MEAN_MOTION_DDOT":"0.0000000000000","ARG_OF_PERICENTER":"55.3453","RCS_SIZE":"LARGE","APOAPSIS":"540.966","OBJECT_NAME":"STARLINK-4797","MEAN_MOTION_DOT":"0.00001470","EPHEMERIS_TYPE":"0","ECCENTRICITY":"0.00017270","COUNTRY_CODE":"US","CLASSIFICATION_TYPE":"U","LAUNCH_DATE":"2022-09-19","TLE_LINE2":"2 53852  53.2183 101.9114 0001727  55.3453 304.7702 15.08831624 17746","PERIOD":"95.438","RA_OF_ASC_NODE":"101.9114","EPOCH":"2023-01-03T12:37:51.654720","REF_FRAME":"TEME","ELEMENT_SET_NO":"999","MEAN_MOTION":"15.08831624","PERIAPSIS":"538.576","GP_ID":"222116301","REV_AT_EPOCH":"1774","MEAN_ANOMALY":"304.7702","INCLINATION":"53.2183","DECAY_DATE":null,"OBJECT_ID":"2022-114AL","OBJECT_TYPE":"PAYLOAD","TIME_SYSTEM":"UTC","TLE_LINE1":"1 53852U 22114AL  23003.52629230  .00001470  00000-0  11045-3 0  9996","BSTAR":"0.00011045000000","MEAN_ELEMENT_THEORY":"SGP4","NORAD_CAT_ID":"53852","SITE":"AFETR","SEMIMAJOR_AXIS":"6917.906"},{"ARG_OF_PERICENTER":"60.4812","MEAN_MOTION_DDOT":"0.0000000000000","FILE":"3730912","CENTER_NAME":"EARTH","RCS_SIZE":"LARGE","OBJECT_NAME":"STARLINK-4794","MEAN_MOTION_DOT":"-0.00054062","EPHEMERIS_TYPE":"0","APOAPSIS":"540.681","COUNTRY_CODE":"US","ECCENTRICITY":"0.00015120","LAUNCH_DATE":"2022-09-19","CLASSIFICATION_TYPE":"U","PERIOD":"95.435","TLE_LINE2":"2 53853  53.2180 104.7221 0001512  60.4812 119.3388 15.08875991 17196","EPOCH":"2023-01-03T22:00:00.999936","RA_OF_ASC_NODE":"104.7221","REF_FRAME":"TEME","ELEMENT_SET_NO":"999","PERIAPSIS":"538.589","GP_ID":"222089638","REV_AT_EPOCH":"1719","MEAN_MOTION":"15.08875991","MEAN_ANOMALY":"119.3388","DECAY_DATE":null,"INCLINATION":"53.2180","OBJECT_TYPE":"PAYLOAD","OBJECT_ID":"2022-114AM","TIME_SYSTEM":"UTC","TLE_LINE1":"1 53853U 22114AM  23003.91667824 -.00054062  00000-0 -34010-2 0  9994","MEAN_ELEMENT_THEORY":"SGP4","BSTAR":"-0.00340100000000","NORAD_CAT_ID":"53853","SITE":"AFETR","SEMIMAJOR_AXIS":"6917.770"},{"TLE_LINE1":"1 53854U 22114AN  23003.58334491 -.01178868  00000-0 -70762-1 0  9994","TIME_SYSTEM":"UTC","BSTAR":"-0.07076200000000","MEAN_ELEMENT_THEORY":"SGP4","SITE":"AFETR","NORAD_CAT_ID":"53854","SEMIMAJOR_AXIS":"6903.574","MEAN_MOTION":"15.13532727","PERIAPSIS":"524.313","GP_ID":"222115424","REV_AT_EPOCH":"130","MEAN_ANOMALY":"190.5671","INCLINATION":"53.2175","DECAY_DATE":null,"OBJECT_ID":"2022-114AN","OBJECT_TYPE":"PAYLOAD","LAUNCH_DATE":"2022-09-19","CLASSIFICATION_TYPE":"U","TLE_LINE2":"2 53854  53.2175  96.7887 0001630  56.1791 190.5671 15.13532727  1303","PERIOD":"95.142","EPOCH":"2023-01-03T14:00:01.000224","RA_OF_ASC_NODE":"96.7887","ELEMENT_SET_NO":"999","REF_FRAME":"TEME","CENTER_NAME":"EARTH","FILE":"3730926","ARG_OF_PERICENTER":"56.1791","MEAN_MOTION_DDOT":"0.0000000000000","RCS_SIZE":"LARGE","APOAPSIS":"526.564","MEAN_MOTION_DOT":"-0.01178868","EPHEMERIS_TYPE":"0","OBJECT_NAME":"STARLINK-4800","ECCENTRICITY":"0.00016300","COUNTRY_CODE":"US"},{"RA_OF_ASC_NODE":"106.3334","EPOCH":"2023-01-03T13:10:09.112512","REF_FRAME":"TEME","ELEMENT_SET_NO":"999","LAUNCH_DATE":"2022-09-19","CLASSIFICATION_TYPE":"U","TLE_LINE2":"2 53855  53.2203 106.3334 0001438  74.3626 285.7524 15.08827180 17682","PERIOD":"95.438","APOAPSIS":"540.779","OBJECT_NAME":"STARLINK-4703","EPHEMERIS_TYPE":"0","MEAN_MOTION_DOT":"0.00001616","ECCENTRICITY":"0.00014380","COUNTRY_CODE":"US","CENTER_NAME":"EARTH","FILE":"3730926","ARG_OF_PERICENTER":"74.3626","MEAN_MOTION_DDOT":"0.0000000000000","RCS_SIZE":"MEDIUM","NORAD_CAT_ID":"53855","SITE":"AFETR","SEMIMAJOR_AXIS":"6917.920","TIME_SYSTEM":"UTC","TLE_LINE1":"1 53855U 22114AP  23003.54871658  .00001616  00000-0  11964-3 0  9996","BSTAR":"0.00011964000000","MEAN_ELEMENT_THEORY":"SGP4","INCLINATION":"53.2203","DECAY_DATE":null,"OBJECT_ID":"2022-114AP","OBJECT_TYPE":"PAYLOAD","MEAN_MOTION":"15.08827180","REV_AT_EPOCH":"1768","GP_ID":"222115649","PERIAPSIS":"538.790","MEAN_ANOMALY":"285.7524"}];
